{
  "type": "FeatureCollection",
  "features": [
    {
      "type": "Feature",
      "properties": {
        "norad_id": 31664,
        "name": "FENGYUN 1C DEB",
        "group": "fengyun-1c-debris",
        "lat": 25.544767517575934,
        "lon": 176.6586952407599,
        "alt_km": 784.5484279824013,
        "timestamp": "2025-12-27T07:26:25.505277+00:00",
        "meta_object_name": "FENGYUN 1C DEB",
        "meta_object_id": "1999-025CBW",
        "meta_epoch": "2025-12-26T22:12:32.571072",
        "meta_mean_motion": 14.10313826,
        "meta_eccentricity": 0.01253801,
        "meta_inclination": 98.7525,
        "meta_ra_of_asc_node": 352.0618,
        "meta_arg_of_pericenter": 118.0915,
        "meta_mean_anomaly": 243.2997,
        "meta_ephemeris_type": 0,
        "meta_classification_type": "U",
        "meta_norad_cat_id": 31664,
        "meta_element_set_no": 999,
        "meta_rev_at_epoch": 96201,
        "meta_bstar": 0.0003835461,
        "meta_mean_motion_dot": 6.9e-06,
        "meta_mean_motion_ddot": 0,
        "tle_line1": "1 31664U 99025CBW 25360.92537698  .00000690  00000+0  38355-3 0  9991",
        "tle_line2": "2 31664  98.7525 352.0618 0125380 118.0915 243.2997 14.10313826962010"
      },
      "geometry": {
        "type": "Point",
        "coordinates": [
          176.6586952407599,
          25.544767517575934
        ]
      }
    },
    {
      "type": "Feature",
      "properties": {
        "norad_id": 31665,
        "name": "FENGYUN 1C DEB",
        "group": "fengyun-1c-debris",
        "lat": -72.3083024373906,
        "lon": 70.60198743865594,
        "alt_km": 1056.741836139713,
        "timestamp": "2025-12-27T07:26:25.505287+00:00",
        "meta_object_name": "FENGYUN 1C DEB",
        "meta_object_id": "1999-025CBX",
        "meta_epoch": "2025-12-16T08:14:19.517280",
        "meta_mean_motion": 13.84829693,
        "meta_eccentricity": 0.01897318,
        "meta_inclination": 98.4487,
        "meta_ra_of_asc_node": 32.9474,
        "meta_arg_of_pericenter": 177.2489,
        "meta_mean_anomaly": 182.9759,
        "meta_ephemeris_type": 0,
        "meta_classification_type": "U",
        "meta_norad_cat_id": 31665,
        "meta_element_set_no": 999,
        "meta_rev_at_epoch": 93241,
        "meta_bstar": 0.0010116548,
        "meta_mean_motion_dot": 1.275e-05,
        "meta_mean_motion_ddot": 0,
        "tle_line1": "1 31665U 99025CBX 25350.34328145  .00001275  00000+0  10117-2 0  9997",
        "tle_line2": "2 31665  98.4487  32.9474 0189731 177.2489 182.9759 13.84829693932412"
      },
      "geometry": {
        "type": "Point",
        "coordinates": [
          70.60198743865594,
          -72.3083024373906
        ]
      }
    },
    {
      "type": "Feature",
      "properties": {
        "norad_id": 31666,
        "name": "FENGYUN 1C DEB",
        "group": "fengyun-1c-debris",
        "lat": 15.90464899154334,
        "lon": -26.287681108322527,
        "alt_km": 607.1732733312592,
        "timestamp": "2025-12-27T07:26:25.505299+00:00",
        "meta_object_name": "FENGYUN 1C DEB",
        "meta_object_id": "1999-025CBY",
        "meta_epoch": "2025-12-24T09:09:21.981024",
        "meta_mean_motion": 14.84587842,
        "meta_eccentricity": 0.00224944,
        "meta_inclination": 98.6568,
        "meta_ra_of_asc_node": 148.0463,
        "meta_arg_of_pericenter": 112.6663,
        "meta_mean_anomaly": 247.693,
        "meta_ephemeris_type": 0,
        "meta_classification_type": "U",
        "meta_norad_cat_id": 31666,
        "meta_element_set_no": 999,
        "meta_rev_at_epoch": 97444,
        "meta_bstar": 0.0041877062,
        "meta_mean_motion_dot": 0.0003563,
        "meta_mean_motion_ddot": 0,
        "tle_line1": "1 31666U 99025CBY 25358.38150441  .00035630  00000+0  41877-2 0  9991",
        "tle_line2": "2 31666  98.6568 148.0463 0022494 112.6663 247.6930 14.84587842974448"
      },
      "geometry": {
        "type": "Point",
        "coordinates": [
          -26.287681108322527,
          15.90464899154334
        ]
      }
    },
    {
      "type": "Feature",
      "properties": {
        "norad_id": 31667,
        "name": "FENGYUN 1C DEB",
        "group": "fengyun-1c-debris",
        "lat": -32.339712939802254,
        "lon": -140.40786041641252,
        "alt_km": 812.035058816622,
        "timestamp": "2025-12-27T07:26:25.505309+00:00",
        "meta_object_name": "FENGYUN 1C DEB",
        "meta_object_id": "1999-025CBZ",
        "meta_epoch": "2025-12-19T08:58:22.158048",
        "meta_mean_motion": 14.23508815,
        "meta_eccentricity": 0.0051766,
        "meta_inclination": 99.0843,
        "meta_ra_of_asc_node": 205.588,
        "meta_arg_of_pericenter": 68.7145,
        "meta_mean_anomaly": 291.9549,
        "meta_ephemeris_type": 0,
        "meta_classification_type": "U",
        "meta_norad_cat_id": 31667,
        "meta_element_set_no": 999,
        "meta_rev_at_epoch": 56087,
        "meta_bstar": 0.00019687,
        "meta_mean_motion_dot": 4.07e-06,
        "meta_mean_motion_ddot": 0,
        "tle_line1": "1 31667U 99025CBZ 25353.37386757  .00000407  00000+0  19687-3 0  9996",
        "tle_line2": "2 31667  99.0843 205.5880 0051766  68.7145 291.9549 14.23508815560874"
      },
      "geometry": {
        "type": "Point",
        "coordinates": [
          -140.40786041641252,
          -32.339712939802254
        ]
      }
    },
    {
      "type": "Feature",
      "properties": {
        "norad_id": 31672,
        "name": "FENGYUN 1C DEB",
        "group": "fengyun-1c-debris",
        "lat": 44.69790750281293,
        "lon": -179.12540144590474,
        "alt_km": 740.4279415698593,
        "timestamp": "2025-12-27T07:26:25.505320+00:00",
        "meta_object_name": "FENGYUN 1C DEB",
        "meta_object_id": "1999-025CCE",
        "meta_epoch": "2025-12-23T18:50:02.785344",
        "meta_mean_motion": 14.51067194,
        "meta_eccentricity": 0.01078417,
        "meta_inclination": 98.956,
        "meta_ra_of_asc_node": 186.1002,
        "meta_arg_of_pericenter": 308.5705,
        "meta_mean_anomaly": 50.5863,
        "meta_ephemeris_type": 0,
        "meta_classification_type": "U",
        "meta_norad_cat_id": 31672,
        "meta_element_set_no": 999,
        "meta_rev_at_epoch": 65031,
        "meta_bstar": 0.001730864,
        "meta_mean_motion_dot": 7.342e-05,
        "meta_mean_motion_ddot": 0,
        "tle_line1": "1 31672U 99025CCE 25357.78475446  .00007342  00000+0  17309-2 0  9998",
        "tle_line2": "2 31672  98.9560 186.1002 0107841 308.5705  50.5863 14.51067194650315"
      },
      "geometry": {
        "type": "Point",
        "coordinates": [
          -179.12540144590474,
          44.69790750281293
        ]
      }
    },
    {
      "type": "Feature",
      "properties": {
        "norad_id": 31673,
        "name": "FENGYUN 1C DEB",
        "group": "fengyun-1c-debris",
        "lat": 60.140707637996826,
        "lon": 33.67168807751431,
        "alt_km": 810.8836045012504,
        "timestamp": "2025-12-27T07:26:25.505330+00:00",
        "meta_object_name": "FENGYUN 1C DEB",
        "meta_object_id": "1999-025CCF",
        "meta_epoch": "2025-12-26T07:25:09.303744",
        "meta_mean_motion": 14.31959541,
        "meta_eccentricity": 0.0125201,
        "meta_inclination": 99.3737,
        "meta_ra_of_asc_node": 195.8686,
        "meta_arg_of_pericenter": 10.0185,
        "meta_mean_anomaly": 350.3449,
        "meta_ephemeris_type": 0,
        "meta_classification_type": "U",
        "meta_norad_cat_id": 31673,
        "meta_element_set_no": 999,
        "meta_rev_at_epoch": 65085,
        "meta_bstar": 0.00022474,
        "meta_mean_motion_dot": 6.04e-06,
        "meta_mean_motion_ddot": 0,
        "tle_line1": "1 31673U 99025CCF 25360.30913546  .00000604  00000+0  22474-3 0  9993",
        "tle_line2": "2 31673  99.3737 195.8686 0125201  10.0185 350.3449 14.31959541650853"
      },
      "geometry": {
        "type": "Point",
        "coordinates": [
          33.67168807751431,
          60.140707637996826
        ]
      }
    },
    {
      "type": "Feature",
      "properties": {
        "norad_id": 31674,
        "name": "FENGYUN 1C DEB",
        "group": "fengyun-1c-debris",
        "lat": -34.63564661159962,
        "lon": -147.70485210070657,
        "alt_km": 708.7645522624634,
        "timestamp": "2025-12-27T07:26:25.505340+00:00",
        "meta_object_name": "FENGYUN 1C DEB",
        "meta_object_id": "1999-025CCG",
        "meta_epoch": "2025-12-21T19:48:19.306080",
        "meta_mean_motion": 14.52041025,
        "meta_eccentricity": 0.00251906,
        "meta_inclination": 98.9259,
        "meta_ra_of_asc_node": 32.7017,
        "meta_arg_of_pericenter": 257.1305,
        "meta_mean_anomaly": 102.7074,
        "meta_ephemeris_type": 0,
        "meta_classification_type": "U",
        "meta_norad_cat_id": 31674,
        "meta_element_set_no": 999,
        "meta_rev_at_epoch": 64746,
        "meta_bstar": 0.0020848751,
        "meta_mean_motion_dot": 8.422e-05,
        "meta_mean_motion_ddot": 0,
        "tle_line1": "1 31674U 99025CCG 25355.82522345  .00008422  00000+0  20849-2 0  9997",
        "tle_line2": "2 31674  98.9259  32.7017 0025190 257.1305 102.7074 14.52041025647467"
      },
      "geometry": {
        "type": "Point",
        "coordinates": [
          -147.70485210070657,
          -34.63564661159962
        ]
      }
    }
  ]
}